{
    "type": "FeatureCollection",
    "features": [
        {
            "type": "Feature",
            "properties": {},
            "geometry": {
                "type": "Polygon",
                "coordinates": [
                    [
                        [
                            -106.496471,
                            31.75868
                        ],
                        [
                            -106.500015,
                            31.757708
                        ],
                        [
                            -106.495869,
                            31.756425
                        ],
                        [
                            -106.494059,
                            31.754381
                        ],
                        [
                            -106.48987,
                            31.753008
                        ],
                        [
                            -106.48755,
                            31.751556
                        ],
                        [
                            -106.485969,
                            31.751898
                        ],
                        [
                            -106.485081,
                            31.748952
                        ],
                        [
                            -106.481964,
                            31.749619
                        ],
                        [
                            -106.4824,
                            31.750851
                        ],
                        [
                            -106.482889,
                            31.750708
                        ],
                        [
                            -106.484568,
                            31.755932
                        ],
                        [
                            -106.480328,
                            31.757098
                        ],
                        [
                            -106.479108,
                            31.757824
                        ],
                        [
                            -106.47834,
                            31.758476
                        ],
                        [
                            -106.473694,
                            31.759459
                        ],
                        [
                            -106.473526,
                            31.771599
                        ],
                        [
                            -106.484466,
                            31.764613
                        ],
                        [
                            -106.48848,
                            31.76376
                        ],
                        [
                            -106.494547,
                            31.760064
                        ],
                        [
                            -106.49552,
                            31.759347
                        ],
                        [
                            -106.496607,
                            31.759004
                        ],
                        [
                            -106.496471,
                            31.75868
                        ]
                    ]
                ]
            }
        },
        {
            "type": "Feature",
            "properties": {},
            "geometry": {
                "type": "Polygon",
                "coordinates": [
                    [
                        [
                            -106.49136,
                            31.762082
                        ],
                        [
                            -106.488716,
                            31.763829
                        ],
                        [
                            -106.48776,
                            31.764022
                        ],
                        [
                            -106.490992,
                            31.767707
                        ],
                        [
                            -106.492708,
                            31.766668
                        ],
                        [
                            -106.49213,
                            31.765926
                        ],
                        [
                            -106.492931,
                            31.765393
                        ],
                        [
                            -106.49352,
                            31.766098
                        ],
                        [
                            -106.494404,
                            31.765528
                        ],
                        [
                            -106.49136,
                            31.762082
                        ]
                    ]
                ]
            }
        }
    ]
}